{
  "type": "FeatureCollection",
  "features": [
    {
      "type": "Feature",
      "properties": {
        "norad_id": 66739,
        "name": "FLOCK 4H-36",
        "group": "last-30-days",
        "lat": -5.020645047099981,
        "lon": -109.78365084442683,
        "alt_km": 513.7958810320615,
        "timestamp": "2025-12-25T07:00:32.763572+00:00",
        "meta_object_name": "FLOCK 4H-36",
        "meta_object_id": "2025-276CB",
        "meta_epoch": "2025-12-24T20:42:17.638560",
        "meta_mean_motion": 15.18019729,
        "meta_eccentricity": 0.00025407,
        "meta_inclination": 97.4446,
        "meta_ra_of_asc_node": 70.4522,
        "meta_arg_of_pericenter": 175.8433,
        "meta_mean_anomaly": 184.2822,
        "meta_ephemeris_type": 0,
        "meta_classification_type": "U",
        "meta_norad_cat_id": 66739,
        "meta_element_set_no": 999,
        "meta_rev_at_epoch": 396,
        "meta_bstar": 0.00048208839,
        "meta_mean_motion_dot": 9.747e-05,
        "meta_mean_motion_ddot": 0,
        "tle_line1": "1 66739U 25276CB  25358.86270415  .00009747  00000+0  48209-3 0  9991",
        "tle_line2": "2 66739  97.4446  70.4522 0002540 175.8433 184.2822 15.18019729  3967"
      },
      "geometry": {
        "type": "Point",
        "coordinates": [
          -109.78365084442683,
          -5.020645047099981
        ]
      }
    },
    {
      "type": "Feature",
      "properties": {
        "norad_id": 66740,
        "name": "TRANSPORTER-15CC",
        "group": "last-30-days",
        "lat": 23.297429152602863,
        "lon": -105.92124828101845,
        "alt_km": 511.73102513993854,
        "timestamp": "2025-12-25T07:00:32.763582+00:00",
        "meta_object_name": "TRANSPORTER-15CC",
        "meta_object_id": "2025-276CC",
        "meta_epoch": "2025-12-24T20:49:41.955744",
        "meta_mean_motion": 15.17743393,
        "meta_eccentricity": 0.00021569,
        "meta_inclination": 97.4409,
        "meta_ra_of_asc_node": 70.4356,
        "meta_arg_of_pericenter": 226.871,
        "meta_mean_anomaly": 133.2343,
        "meta_ephemeris_type": 0,
        "meta_classification_type": "U",
        "meta_norad_cat_id": 66740,
        "meta_element_set_no": 999,
        "meta_rev_at_epoch": 396,
        "meta_bstar": 0.00053522672,
        "meta_mean_motion_dot": 0.00010744,
        "meta_mean_motion_ddot": 0,
        "tle_line1": "1 66740U 25276CC  25358.86784671  .00010744  00000+0  53523-3 0  9991",
        "tle_line2": "2 66740  97.4409  70.4356 0002156 226.8710 133.2343 15.17743393  3963"
      },
      "geometry": {
        "type": "Point",
        "coordinates": [
          -105.92124828101845,
          23.297429152602863
        ]
      }
    },
    {
      "type": "Feature",
      "properties": {
        "norad_id": 66741,
        "name": "TRANSPORTER-15CD",
        "group": "last-30-days",
        "lat": 29.37379191879673,
        "lon": -104.93995889179742,
        "alt_km": 511.31234477416183,
        "timestamp": "2025-12-25T07:00:32.763593+00:00",
        "meta_object_name": "TRANSPORTER-15CD",
        "meta_object_id": "2025-276CD",
        "meta_epoch": "2025-12-24T20:51:16.800480",
        "meta_mean_motion": 15.17638885,
        "meta_eccentricity": 0.000108,
        "meta_inclination": 97.4404,
        "meta_ra_of_asc_node": 70.4259,
        "meta_arg_of_pericenter": 217.8314,
        "meta_mean_anomaly": 142.2844,
        "meta_ephemeris_type": 0,
        "meta_classification_type": "U",
        "meta_norad_cat_id": 66741,
        "meta_element_set_no": 999,
        "meta_rev_at_epoch": 396,
        "meta_bstar": 0.00027552863,
        "meta_mean_motion_dot": 5.478e-05,
        "meta_mean_motion_ddot": 0,
        "tle_line1": "1 66741U 25276CD  25358.86894445  .00005478  00000+0  27553-3 0  9995",
        "tle_line2": "2 66741  97.4404  70.4259 0001080 217.8314 142.2844 15.17638885  3961"
      },
      "geometry": {
        "type": "Point",
        "coordinates": [
          -104.93995889179742,
          29.37379191879673
        ]
      }
    },
    {
      "type": "Feature",
      "properties": {
        "norad_id": 66742,
        "name": "TRANSPORTER-15CE",
        "group": "last-30-days",
        "lat": 20.39087140889776,
        "lon": -106.37277452279557,
        "alt_km": 511.6084161485851,
        "timestamp": "2025-12-25T07:00:32.763603+00:00",
        "meta_object_name": "TRANSPORTER-15CE",
        "meta_object_id": "2025-276CE",
        "meta_epoch": "2025-12-24T22:23:51.885888",
        "meta_mean_motion": 15.17721827,
        "meta_eccentricity": 0.00018408,
        "meta_inclination": 97.44,
        "meta_ra_of_asc_node": 70.4904,
        "meta_arg_of_pericenter": 179.8419,
        "meta_mean_anomaly": 180.2816,
        "meta_ephemeris_type": 0,
        "meta_classification_type": "U",
        "meta_norad_cat_id": 66742,
        "meta_element_set_no": 999,
        "meta_rev_at_epoch": 397,
        "meta_bstar": 0.00032624349,
        "meta_mean_motion_dot": 6.515e-05,
        "meta_mean_motion_ddot": 0,
        "tle_line1": "1 66742U 25276CE  25358.93323942  .00006515  00000+0  32624-3 0  9991",
        "tle_line2": "2 66742  97.4400  70.4904 0001840 179.8419 180.2816 15.17721827  3973"
      },
      "geometry": {
        "type": "Point",
        "coordinates": [
          -106.37277452279557,
          20.39087140889776
        ]
      }
    },
    {
      "type": "Feature",
      "properties": {
        "norad_id": 66743,
        "name": "TRANSPORTER-15CF",
        "group": "last-30-days",
        "lat": 43.03836626583181,
        "lon": -102.17008535731999,
        "alt_km": 510.4841191182095,
        "timestamp": "2025-12-25T07:00:32.763615+00:00",
        "meta_object_name": "TRANSPORTER-15CF",
        "meta_object_id": "2025-276CF",
        "meta_epoch": "2025-12-24T17:44:58.609536",
        "meta_mean_motion": 15.17443777,
        "meta_eccentricity": 0.00025269,
        "meta_inclination": 97.4332,
        "meta_ra_of_asc_node": 70.2853,
        "meta_arg_of_pericenter": 263.2405,
        "meta_mean_anomaly": 96.8541,
        "meta_ephemeris_type": 0,
        "meta_classification_type": "U",
        "meta_norad_cat_id": 66743,
        "meta_element_set_no": 999,
        "meta_rev_at_epoch": 394,
        "meta_bstar": 0.008927038,
        "meta_mean_motion_dot": 0.00182978,
        "meta_mean_motion_ddot": 0,
        "tle_line1": "1 66743U 25276CF  25358.73956724  .00182978  00000+0  89270-2 0  9996",
        "tle_line2": "2 66743  97.4332  70.2853 0002526 263.2405  96.8541 15.17443777  3943"
      },
      "geometry": {
        "type": "Point",
        "coordinates": [
          -102.17008535731999,
          43.03836626583181
        ]
      }
    },
    {
      "type": "Feature",
      "properties": {
        "norad_id": 66744,
        "name": "TRANSPORTER-15CG",
        "group": "last-30-days",
        "lat": 23.122764236953905,
        "lon": -106.00842780233747,
        "alt_km": 502.9689814630992,
        "timestamp": "2025-12-25T07:00:32.763625+00:00",
        "meta_object_name": "TRANSPORTER-15CG",
        "meta_object_id": "2025-276CG",
        "meta_epoch": "2025-12-24T20:50:10.389120",
        "meta_mean_motion": 15.19335315,
        "meta_eccentricity": 0.00242979,
        "meta_inclination": 97.3869,
        "meta_ra_of_asc_node": 70.4013,
        "meta_arg_of_pericenter": 232.5396,
        "meta_mean_anomaly": 127.3629,
        "meta_ephemeris_type": 0,
        "meta_classification_type": "U",
        "meta_norad_cat_id": 66744,
        "meta_element_set_no": 999,
        "meta_rev_at_epoch": 396,
        "meta_bstar": 0.00053536577,
        "meta_mean_motion_dot": 0.00011339,
        "meta_mean_motion_ddot": 0,
        "tle_line1": "1 66744U 25276CG  25358.86817580  .00011339  00000+0  53537-3 0  9997",
        "tle_line2": "2 66744  97.3869  70.4013 0024297 232.5396 127.3629 15.19335315  3964"
      },
      "geometry": {
        "type": "Point",
        "coordinates": [
          -106.00842780233747,
          23.122764236953905
        ]
      }
    },
    {
      "type": "Feature",
      "properties": {
        "norad_id": 66745,
        "name": "TRANSPORTER-15CH",
        "group": "last-30-days",
        "lat": 44.08076445716718,
        "lon": -101.89317147483452,
        "alt_km": 509.58502233257786,
        "timestamp": "2025-12-25T07:00:32.763635+00:00",
        "meta_object_name": "TRANSPORTER-15CH",
        "meta_object_id": "2025-276CH",
        "meta_epoch": "2025-12-24T22:30:04.361472",
        "meta_mean_motion": 15.1740555,
        "meta_eccentricity": 0.0001188,
        "meta_inclination": 97.4406,
        "meta_ra_of_asc_node": 70.4877,
        "meta_arg_of_pericenter": 194.8425,
        "meta_mean_anomaly": 165.2774,
        "meta_ephemeris_type": 0,
        "meta_classification_type": "U",
        "meta_norad_cat_id": 66745,
        "meta_element_set_no": 999,
        "meta_rev_at_epoch": 397,
        "meta_bstar": 0.00015800215,
        "meta_mean_motion_dot": 3.091e-05,
        "meta_mean_motion_ddot": 0,
        "tle_line1": "1 66745U 25276CH  25358.93755048  .00003091  00000+0  15800-3 0  9993",
        "tle_line2": "2 66745  97.4406  70.4877 0001188 194.8425 165.2774 15.17405550  3978"
      },
      "geometry": {
        "type": "Point",
        "coordinates": [
          -101.89317147483452,
          44.08076445716718
        ]
      }
    }
  ]
}